[Satellite]
VERSION=1.1
NAME=IRIDIUM 54 [+]
NICKNAME=IRIDIUM 54 [+]
TLE1=1 25171U 98010C   18020.76552201  .00000118  00000-0  35083-4 0  9996
TLE2=2 25171  86.3955 259.4368 0002018  87.8114 272.3313 14.34218453 43138
